[{"OBJECT_NAME":"CUBESX-HSE 3 (RS42S)","OBJECT_ID":"2023-091N","EPOCH":"2026-03-09T22:57:25.321248","MEAN_MOTION":15.286147,"ECCENTRICITY":0.00127191,"INCLINATION":97.5203,"RA_OF_ASC_NODE":133.4295,"ARG_OF_PERICENTER":86.5376,"MEAN_ANOMALY":273.7318,"EPHEMERIS_TYPE":0,"CLASSIFICATION_TYPE":"U","NORAD_CAT_ID":57178,"ELEMENT_SET_NO":999,"REV_AT_EPOCH":14925,"BSTAR":0.00059055694,"MEAN_MOTION_DOT":0.00016417,"MEAN_MOTION_DDOT":0},{"OBJECT_NAME":"STARLINK-30472","OBJECT_ID":"2023-146L","EPOCH":"2026-03-09T01:39:16.370208","MEAN_MOTION":15.2671741,"ECCENTRICITY":0.00019725,"INCLINATION":43.0003,"RA_OF_ASC_NODE":314.091,"ARG_OF_PERICENTER":252.9974,"MEAN_ANOMALY":107.0662,"EPHEMERIS_TYPE":0,"CLASSIFICATION_TYPE":"U","NORAD_CAT_ID":57901,"ELEMENT_SET_NO":999,"REV_AT_EPOCH":13594,"BSTAR":-0.00021381266,"MEAN_MOTION_DOT":-5.987e-5,"MEAN_MOTION_DDOT":0}]
